[Satellite]
VERSION=1.1
NAME=GALAXY 6
NICKNAME=GALAXY 6
TLE1=1 20873U 90091B   11059.08082696  .00000064  00000-0  10000-3 0  4959
TLE2=2 20873   7.6418  60.8049 0001366 351.6561   8.4747  0.99757470 69045
